ONEWEB-0196             
1 48218U 21031J   24241.78774044  .00000259  00000+0  66382-3 0  9997
2 48218  87.8926  60.4499 0001720  92.2251 267.9076 13.14503843161869
ONEWEB-0185             
1 48220U 21031L   24241.78853087  .00000195  00000+0  49213-3 0  9998
2 48220  87.8923  60.4371 0001917  88.7393 271.3956 13.14504552161889
ONEWEB-0187             
1 48221U 21031M   24241.75839898 -.00000406  00000+0 -11294-2 0  9994
2 48221  87.8918  60.4762 0001923  89.3203 270.8147 13.14501615161896
ONEWEB-0192             
1 48222U 21031N   24241.73857336 -.00000129  00000+0 -38303-3 0  9993
2 48222  87.8927  60.4781 0001719  93.6607 266.4720 13.14502454161808
ONEWEB-0219             
1 48223U 21031P   24241.79408908  .00000297  00000+0  76606-3 0  9999
2 48223  87.8924  60.4408 0001935  90.8648 269.2704 13.14504248162016
ONEWEB-0202             
1 48224U 21031Q   24241.77504829 -.00000250  00000+0 -70995-3 0  9993
2 48224  87.8924  60.4629 0002099 113.9706 246.1644 13.14501495161990
ONEWEB-0204             
1 48225U 21031R   24241.73302565  .00000191  00000+0  48094-3 0  9990
2 48225  87.8927  60.4837 0001808  77.6596 282.4736 13.14504043161880
